[{"OBJECT_NAME":"NIMIQ 2","OBJECT_ID":"2002-062A","EPOCH":"2026-04-26T12:42:23.063040","MEAN_MOTION":1.00273116,"ECCENTRICITY":0.00063731,"INCLINATION":9.3302,"RA_OF_ASC_NODE":57.4388,"ARG_OF_PERICENTER":334.2041,"MEAN_ANOMALY":264.3234,"EPHEMERIS_TYPE":0,"CLASSIFICATION_TYPE":"U","NORAD_CAT_ID":27632,"ELEMENT_SET_NO":999,"REV_AT_EPOCH":4366,"BSTAR":0,"MEAN_MOTION_DOT":-7.7e-7,"MEAN_MOTION_DDOT":0},{"OBJECT_NAME":"ANIK F2","OBJECT_ID":"2004-027A","EPOCH":"2026-04-26T14:44:56.224032","MEAN_MOTION":1.00271536,"ECCENTRICITY":0.0004345,"INCLINATION":3.155,"RA_OF_ASC_NODE":80.1121,"ARG_OF_PERICENTER":333.029,"MEAN_ANOMALY":271.5746,"EPHEMERIS_TYPE":0,"CLASSIFICATION_TYPE":"U","NORAD_CAT_ID":28378,"ELEMENT_SET_NO":999,"REV_AT_EPOCH":4074,"BSTAR":0,"MEAN_MOTION_DOT":-5.9e-7,"MEAN_MOTION_DDOT":0},{"OBJECT_NAME":"ANIK F1R","OBJECT_ID":"2005-036A","EPOCH":"2026-04-26T12:41:56.144256","MEAN_MOTION":1.0027217,"ECCENTRICITY":0.0003418,"INCLINATION":4.1828,"RA_OF_ASC_NODE":77.2015,"ARG_OF_PERICENTER":331.5005,"MEAN_ANOMALY":249.0329,"EPHEMERIS_TYPE":0,"CLASSIFICATION_TYPE":"U","NORAD_CAT_ID":28868,"ELEMENT_SET_NO":999,"REV_AT_EPOCH":4593,"BSTAR":0,"MEAN_MOTION_DOT":-8.4e-7,"MEAN_MOTION_DDOT":0},{"OBJECT_NAME":"ANIK F3","OBJECT_ID":"2007-009A","EPOCH":"2026-04-26T13:00:14.195808","MEAN_MOTION":1.00272279,"ECCENTRICITY":0.00027134,"INCLINATION":1.0656,"RA_OF_ASC_NODE":84.3974,"ARG_OF_PERICENTER":309.2956,"MEAN_ANOMALY":257.1958,"EPHEMERIS_TYPE":0,"CLASSIFICATION_TYPE":"U","NORAD_CAT_ID":31102,"ELEMENT_SET_NO":999,"REV_AT_EPOCH":4604,"BSTAR":0,"MEAN_MOTION_DOT":-1.2e-7,"MEAN_MOTION_DDOT":0},{"OBJECT_NAME":"NIMIQ 4","OBJECT_ID":"2008-044A","EPOCH":"2026-04-26T20:01:20.337888","MEAN_MOTION":1.00271296,"ECCENTRICITY":0.0002214,"INCLINATION":0.0062,"RA_OF_ASC_NODE":288.2227,"ARG_OF_PERICENTER":103.4853,"MEAN_ANOMALY":41.476,"EPHEMERIS_TYPE":0,"CLASSIFICATION_TYPE":"U","NORAD_CAT_ID":33373,"ELEMENT_SET_NO":999,"REV_AT_EPOCH":6446,"BSTAR":0,"MEAN_MOTION_DOT":-2.32e-6,"MEAN_MOTION_DDOT":0},{"OBJECT_NAME":"TELSTAR 11N","OBJECT_ID":"2009-009A","EPOCH":"2026-04-26T16:48:36.865152","MEAN_MOTION":1.00268089,"ECCENTRICITY":0.0002565,"INCLINATION":0.0123,"RA_OF_ASC_NODE":230.7027,"ARG_OF_PERICENTER":151.7328,"MEAN_ANOMALY":46.8608,"EPHEMERIS_TYPE":0,"CLASSIFICATION_TYPE":"U","NORAD_CAT_ID":34111,"ELEMENT_SET_NO":999,"REV_AT_EPOCH":4572,"BSTAR":0,"MEAN_MOTION_DOT":0,"MEAN_MOTION_DDOT":0},{"OBJECT_NAME":"TERRESTAR-1","OBJECT_ID":"2009-035A","EPOCH":"2026-04-26T16:30:38.880000","MEAN_MOTION":1.00270051,"ECCENTRICITY":0.0002896,"INCLINATION":5.1513,"RA_OF_ASC_NODE":48.8063,"ARG_OF_PERICENTER":345.2641,"MEAN_ANOMALY":317.2644,"EPHEMERIS_TYPE":0,"CLASSIFICATION_TYPE":"U","NORAD_CAT_ID":35496,"ELEMENT_SET_NO":999,"REV_AT_EPOCH":6161,"BSTAR":0,"MEAN_MOTION_DOT":-6.5e-7,"MEAN_MOTION_DDOT":0},{"OBJECT_NAME":"NIMIQ 5","OBJECT_ID":"2009-050A","EPOCH":"2026-04-26T20:04:05.075040","MEAN_MOTION":1.00268604,"ECCENTRICITY":0.0003083,"INCLINATION":0.0224,"RA_OF_ASC_NODE":105.2532,"ARG_OF_PERICENTER":301.3368,"MEAN_ANOMALY":36.5679,"EPHEMERIS_TYPE":0,"CLASSIFICATION_TYPE":"U","NORAD_CAT_ID":35873,"ELEMENT_SET_NO":999,"REV_AT_EPOCH":6082,"BSTAR":0,"MEAN_MOTION_DOT":0,"MEAN_MOTION_DDOT":0},{"OBJECT_NAME":"SKYTERRA 1","OBJECT_ID":"2010-061A","EPOCH":"2026-04-26T12:38:36.269088","MEAN_MOTION":1.0027177,"ECCENTRICITY":0.0003108,"INCLINATION":5.0183,"RA_OF_ASC_NODE":50.8826,"ARG_OF_PERICENTER":24.3372,"MEAN_ANOMALY":227.624,"EPHEMERIS_TYPE":0,"CLASSIFICATION_TYPE":"U","NORAD_CAT_ID":37218,"ELEMENT_SET_NO":999,"REV_AT_EPOCH":5667,"BSTAR":0,"MEAN_MOTION_DOT":-1.27e-6,"MEAN_MOTION_DDOT":0},{"OBJECT_NAME":"TELSTAR 14R","OBJECT_ID":"2011-021A","EPOCH":"2026-04-26T11:33:21.581856","MEAN_MOTION":1.00271318,"ECCENTRICITY":0.00022771,"INCLINATION":0.0197,"RA_OF_ASC_NODE":257.7355,"ARG_OF_PERICENTER":130.3447,"MEAN_ANOMALY":296.7265,"EPHEMERIS_TYPE":0,"CLASSIFICATION_TYPE":"U","NORAD_CAT_ID":37602,"ELEMENT_SET_NO":999,"REV_AT_EPOCH":5531,"BSTAR":0,"MEAN_MOTION_DOT":-2.92e-6,"MEAN_MOTION_DDOT":0},{"OBJECT_NAME":"NIMIQ 6","OBJECT_ID":"2012-026A","EPOCH":"2026-04-26T19:58:43.089888","MEAN_MOTION":1.0027181,"ECCENTRICITY":0.0002559,"INCLINATION":0.0646,"RA_OF_ASC_NODE":76.7556,"ARG_OF_PERICENTER":313.7519,"MEAN_ANOMALY":32.8993,"EPHEMERIS_TYPE":0,"CLASSIFICATION_TYPE":"U","NORAD_CAT_ID":38342,"ELEMENT_SET_NO":999,"REV_AT_EPOCH":4989,"BSTAR":0,"MEAN_MOTION_DOT":-1.85e-6,"MEAN_MOTION_DDOT":0},{"OBJECT_NAME":"ANIK G1","OBJECT_ID":"2013-014A","EPOCH":"2026-04-26T16:28:46.267104","MEAN_MOTION":1.00269362,"ECCENTRICITY":0.0002188,"INCLINATION":0.0238,"RA_OF_ASC_NODE":104.6496,"ARG_OF_PERICENTER":273.7925,"MEAN_ANOMALY":336.136,"EPHEMERIS_TYPE":0,"CLASSIFICATION_TYPE":"U","NORAD_CAT_ID":39127,"ELEMENT_SET_NO":999,"REV_AT_EPOCH":4773,"BSTAR":0,"MEAN_MOTION_DOT":0,"MEAN_MOTION_DDOT":0},{"OBJECT_NAME":"TELSTAR 12V","OBJECT_ID":"2015-068A","EPOCH":"2026-04-26T18:37:50.337120","MEAN_MOTION":1.00271691,"ECCENTRICITY":0.0002482,"INCLINATION":0.0067,"RA_OF_ASC_NODE":203.0173,"ARG_OF_PERICENTER":188.4953,"MEAN_ANOMALY":87.722,"EPHEMERIS_TYPE":0,"CLASSIFICATION_TYPE":"U","NORAD_CAT_ID":41036,"ELEMENT_SET_NO":999,"REV_AT_EPOCH":3811,"BSTAR":0,"MEAN_MOTION_DOT":-1.3e-6,"MEAN_MOTION_DDOT":0},{"OBJECT_NAME":"VIASAT-2","OBJECT_ID":"2017-029A","EPOCH":"2026-04-26T11:31:29.260128","MEAN_MOTION":1.00270805,"ECCENTRICITY":1.92e-5,"INCLINATION":0.0171,"RA_OF_ASC_NODE":268.4645,"ARG_OF_PERICENTER":94.5032,"MEAN_ANOMALY":314.4888,"EPHEMERIS_TYPE":0,"CLASSIFICATION_TYPE":"U","NORAD_CAT_ID":42740,"ELEMENT_SET_NO":999,"REV_AT_EPOCH":3268,"BSTAR":0,"MEAN_MOTION_DOT":-2.77e-6,"MEAN_MOTION_DDOT":0},{"OBJECT_NAME":"LEO 1 (LEO VANTAGE 1)","OBJECT_ID":"2018-004C","EPOCH":"2026-04-26T17:00:41.223744","MEAN_MOTION":14.67565783,"ECCENTRICITY":0.0350184,"INCLINATION":99.2451,"RA_OF_ASC_NODE":28.2854,"ARG_OF_PERICENTER":237.3699,"MEAN_ANOMALY":119.326,"EPHEMERIS_TYPE":0,"CLASSIFICATION_TYPE":"U","NORAD_CAT_ID":43113,"ELEMENT_SET_NO":999,"REV_AT_EPOCH":42993,"BSTAR":0.0001442,"MEAN_MOTION_DOT":1.996e-5,"MEAN_MOTION_DDOT":0},{"OBJECT_NAME":"TELSTAR 19V","OBJECT_ID":"2018-059A","EPOCH":"2026-04-26T20:06:49.812192","MEAN_MOTION":1.00270645,"ECCENTRICITY":0.0001721,"INCLINATION":0.0199,"RA_OF_ASC_NODE":186.0361,"ARG_OF_PERICENTER":260.5647,"MEAN_ANOMALY":6.9328,"EPHEMERIS_TYPE":0,"CLASSIFICATION_TYPE":"U","NORAD_CAT_ID":43562,"ELEMENT_SET_NO":999,"REV_AT_EPOCH":2862,"BSTAR":0,"MEAN_MOTION_DOT":-2.91e-6,"MEAN_MOTION_DDOT":0},{"OBJECT_NAME":"TELSTAR 18V","OBJECT_ID":"2018-069A","EPOCH":"2026-04-26T19:21:24.167808","MEAN_MOTION":1.00272227,"ECCENTRICITY":0.000207,"INCLINATION":0.0145,"RA_OF_ASC_NODE":266.8605,"ARG_OF_PERICENTER":118.9621,"MEAN_ANOMALY":257.3346,"EPHEMERIS_TYPE":0,"CLASSIFICATION_TYPE":"U","NORAD_CAT_ID":43611,"ELEMENT_SET_NO":999,"REV_AT_EPOCH":2812,"BSTAR":0,"MEAN_MOTION_DOT":-3.05e-6,"MEAN_MOTION_DDOT":0}]
