NIMIQ 2                 
1 27632U 02062A   26116.52943360 -.00000077  00000+0  00000+0 0  9991
2 27632   9.3302  57.4388 0006373 334.2041 264.3234  1.00273116 43664
ANIK F2                 
1 28378U 04027A   26116.61453963 -.00000059  00000+0  00000+0 0  9997
2 28378   3.1550  80.1121 0004345 333.0290 271.5746  1.00271536 40745
ANIK F1R                
1 28868U 05036A   26116.52912204 -.00000084  00000+0  00000+0 0  9998
2 28868   4.1828  77.2015 0003418 331.5005 249.0329  1.00272170 45932
ANIK F3                 
1 31102U 07009A   26116.54183097 -.00000012  00000+0  00000+0 0  9998
2 31102   1.0656  84.3974 0002713 309.2956 257.1958  1.00272279 46040
NIMIQ 4                 
1 33373U 08044A   26116.83426317 -.00000232  00000+0  00000+0 0  9991
2 33373   0.0062 288.2227 0002214 103.4853  41.4760  1.00271296 64463
TELSTAR 11N             
1 34111U 09009A   26116.70042668  .00000000  00000+0  00000+0 0  9995
2 34111   0.0123 230.7027 0002565 151.7328  46.8608  1.00268089 45728
TERRESTAR-1             
1 35496U 09035A   26116.68795000 -.00000065  00000+0  00000+0 0  9995
2 35496   5.1513  48.8063 0002896 345.2641 317.2644  1.00270051 61610
NIMIQ 5                 
1 35873U 09050A   26116.83616985  .00000000  00000+0  00000+0 0  9990
2 35873   0.0224 105.2532 0003083 301.3368  36.5679  1.00268604 60821
SKYTERRA 1              
1 37218U 10061A   26116.52680867 -.00000127  00000+0  00000+0 0  9996
2 37218   5.0183  50.8826 0003108  24.3372 227.6240  1.00271770 56674
TELSTAR 14R             
1 37602U 11021A   26116.48149979 -.00000292  00000+0  00000+0 0  9992
2 37602   0.0197 257.7355 0002277 130.3447 296.7265  1.00271318 55315
NIMIQ 6                 
1 38342U 12026A   26116.83244317 -.00000185  00000+0  00000+0 0  9992
2 38342   0.0646  76.7556 0002559 313.7519  32.8993  1.00271810 49898
ANIK G1                 
1 39127U 13014A   26116.68664661  .00000000  00000+0  00000+0 0  9998
2 39127   0.0238 104.6496 0002188 273.7925 336.1360  1.00269362 47733
TELSTAR 12V             
1 41036U 15068A   26116.77627705 -.00000130  00000+0  00000+0 0  9994
2 41036   0.0067 203.0173 0002482 188.4953  87.7220  1.00271691 38115
VIASAT-2                
1 42740U 17029A   26116.48019977 -.00000277  00000+0  00000+0 0  9992
2 42740   0.0171 268.4645 0000192  94.5032 314.4888  1.00270805 32686
LEO 1 (LEO VANTAGE 1)   
1 43113U 18004C   26116.70881046  .00001996  00000+0  14420-3 0  9993
2 43113  99.2451  28.2854 0350184 237.3699 119.3260 14.67565783429934
TELSTAR 19V             
1 43562U 18059A   26116.83807653 -.00000291  00000+0  00000+0 0  9990
2 43562   0.0199 186.0361 0001721 260.5647   6.9328  1.00270645 28628
TELSTAR 18V             
1 43611U 18069A   26116.80652972 -.00000305  00000+0  00000+0 0  9991
2 43611   0.0145 266.8605 0002070 118.9621 257.3346  1.00272227 28123
